{
  "norad_id": 43706,
  "name": "BEIDOU-3 M17",
  "history": [
    {
      "epoch": "2026-03-27T04:51:37.860192",
      "apogee_km": 21550.296836895075,
      "perigee_km": 21506.34974323028,
      "latitude_deg": -7.234889041980913,
      "longitude_deg": -85.95793311973102,
      "semi_major_axis_km": 27906.460290062674,
      "eccentricity": 0.0007874,
      "inclination_deg": 54.1688,
      "raan_deg": 185.0778,
      "arg_perigee_deg": 293.7414,
      "mean_anomaly_deg": 97.3651,
      "mean_motion_rev_day": 1.8622828
    }
  ]
}